NORAD_CAT_ID,OBJECT_NAME,OBJECT_TYPE,EPOCH,MEAN_MOTION,ECCENTRICITY,INCLINATION,RA_OF_ASC_NODE,ARG_OF_PERICENTER,MEAN_ANOMALY,BSTAR,MEAN_MOTION_DOT,MEAN_MOTION_DDOT,TLE_LINE0,TLE_LINE1,TLE_LINE2,SEMIMAJOR_AXIS,PERIOD,APOGEE,PERIGEE,DECAYED
54012.0,STARLINK-5126,PAYLOAD,2024-03-26 13:00:57,15.08812681,0.000197,53.2161,165.4347,95.1572,264.9645,0.0010293,0.00016119,0.0,0 STARLINK-5126,1 54012U 22125BA  24086.54233730  .00016119  00000-0  10293-2 0  9996,2 54012  53.2161 165.4347 0001970  95.1572 264.9645 15.08812681 81991,6917.964,95.439,541.192,538.466,0.0
54012.0,STARLINK-5126,PAYLOAD,2024-03-26 22:33:17,15.08829645,0.0002002,53.2165,163.6509,95.701,264.421,0.0011091,0.00017402,0.0,0 STARLINK-5126,1 54012U 22125BA  24086.93978076  .00017402  00000-0  11091-2 0  9991,2 54012  53.2165 163.6509 0002002  95.7010 264.4210 15.08829645 82009,6917.912,95.438,541.162,538.392,0.0
54012.0,STARLINK-5126,PAYLOAD,2024-03-27 11:16:21,15.08868069,0.0001954,53.2159,161.273,90.5604,269.5612,0.001725,0.00027293,0.0,0 STARLINK-5126,1 54012U 22125BA  24087.46969489  .00027293  00000-0  17250-2 0  9990,2 54012  53.2159 161.2730 0001954  90.5604 269.5612 15.08868069 82138,6917.795,95.436,541.011,538.308,0.0
54012.0,STARLINK-5126,PAYLOAD,2024-03-27 22:24:03,15.08860769,0.0002294,53.2157,159.1881,102.5511,257.5738,0.00080179,0.00012503,0.0,0 STARLINK-5126,1 54012U 22125BA  24087.93336985  .00012503  00000-0  80179-3 0  9990,2 54012  53.2157 159.1881 0002294 102.5511 257.5738 15.08860769 82155,6917.817,95.436,541.269,538.095,0.0
54012.0,STARLINK-5126,PAYLOAD,2024-03-28 04:45:35,15.08861746,0.0002435,53.2164,158.0005,100.0269,260.0998,0.00046259,7.086e-05,0.0,0 STARLINK-5126,1 54012U 22125BA  24088.19832764  .00007086  00000-0  46259-3 0  9996,2 54012  53.2164 158.0005 0002435 100.0269 260.0998 15.08861746 82242,6917.814,95.436,541.363,537.994,0.0
54012.0,STARLINK-5126,PAYLOAD,2024-03-28 11:07:07,15.08858235,0.0001889,53.2161,156.8116,95.8923,264.2285,0.00033879,5.111e-05,0.0,0 STARLINK-5126,1 54012U 22125BA  24088.46328551  .00005111  00000-0  33879-3 0  9991,2 54012  53.2161 156.8116 0001889  95.8923 264.2285 15.08858235 82231,6917.825,95.436,540.996,538.383,0.0
54012.0,STARLINK-5126,PAYLOAD,2024-03-29 10:57:54,15.08853674,0.0001769,53.2153,152.3522,89.054,271.0655,9.0545e-05,1.154e-05,0.0,0 STARLINK-5126,1 54012U 22125BA  24089.45688235  .00001154  00000-0  90545-4 0  9996,2 54012  53.2153 152.3522 0001769  89.0540 271.0655 15.08853674 82432,6917.839,95.437,540.927,538.48,0.0
54012.0,STARLINK-5126,PAYLOAD,2024-03-30 04:27:09,15.08840861,0.0001767,53.2162,149.0832,87.7384,272.381,6.3054e-05,7.16e-06,0.0,0 STARLINK-5126,1 54012U 22125BA  24090.18552676  .00000716  00000-0  63054-4 0  9995,2 54012  53.2162 149.0832 0001767  87.7384 272.3810 15.08840861 82541,6917.878,95.438,540.965,538.52,0.0
54012.0,STARLINK-5126,PAYLOAD,2024-03-30 10:48:41,15.08855097,0.0002321,53.2163,147.8918,86.541,273.5847,-0.00019819,-3.443e-05,0.0,0 STARLINK-5126,1 54012U 22125BA  24090.45047779 -.00003443  00000-0 -19819-3 0  9999,2 54012  53.2163 147.8918 0002321  86.5410 273.5847 15.08855097 82581,6917.834,95.437,541.305,538.094,0.0
54012.0,STARLINK-5126,PAYLOAD,2024-03-30 20:21:00,15.08839797,0.0001795,53.2159,146.1076,87.8929,272.2268,1.715e-05,-1.5e-07,0.0,0 STARLINK-5126,1 54012U 22125BA  24090.84792585 -.00000015  00000-0  17150-4 0  9992,2 54012  53.2159 146.1076 0001795  87.8929 272.2268 15.08839797 82645,6917.881,95.438,540.988,538.504,0.0
54012.0,STARLINK-5126,PAYLOAD,2024-03-31 10:39:29,15.08838579,0.0001746,53.2176,143.4326,92.5227,267.5965,4.4031e-06,-2.18e-06,0.0,0 STARLINK-5126,1 54012U 22125BA  24091.44409039 -.00000218  00000-0  44031-5 0  9992,2 54012  53.2176 143.4326 0001746  92.5227 267.5965 15.08838579 82684,6917.885,95.438,540.958,538.542,0.0
54012.0,STARLINK-5126,PAYLOAD,2024-03-31 20:11:48,15.0883582,0.000173,53.2177,141.6486,93.059,267.06,-3.6468e-05,-8.68e-06,0.0,0 STARLINK-5126,1 54012U 22125BA  24091.84153340 -.00000868  00000-0 -36468-4 0  9993,2 54012  53.2177 141.6486 0001730  93.0590 267.0600 15.08835820 82793,6917.893,95.438,540.955,538.561,0.0
54012.0,STARLINK-5126,PAYLOAD,2024-04-01 13:41:02,15.08838235,0.0001693,53.2175,138.3772,94.8953,265.2232,4.7018e-05,4.6e-06,0.0,0 STARLINK-5126,1 54012U 22125BA  24092.57017336  .00000460  00000-0  47018-4 0  9997,2 54012  53.2175 138.3772 0001693  94.8953 265.2232 15.08838235 82853,6917.886,95.438,540.922,538.58,0.0
54012.0,STARLINK-5126,PAYLOAD,2024-04-01 20:02:35,15.08843581,0.0001656,53.2171,137.187,92.5509,267.5673,6.5171e-05,7.49e-06,0.0,0 STARLINK-5126,1 54012U 22125BA  24092.83512946  .00000749  00000-0  65171-4 0  9993,2 54012  53.2171 137.1870 0001656  92.5509 267.5673 15.08843581 82940,6917.869,95.437,540.88,538.589,0.0
54012.0,STARLINK-5126,PAYLOAD,2024-04-02 11:56:26,15.08849608,0.0001588,53.2168,134.2129,91.9234,268.194,0.00021616,3.155e-05,0.0,0 STARLINK-5126,1 54012U 22125BA  24093.49752318  .00003155  00000-0  21616-3 0  9994,2 54012  53.2168 134.2129 0001588  91.9234 268.1940 15.08849608 82998,6917.851,95.437,540.815,538.617,0.0
54012.0,STARLINK-5126,PAYLOAD,2024-04-02 19:53:22,15.08843608,0.000158,53.2167,132.726,91.132,268.9853,0.00016155,2.284e-05,0.0,0 STARLINK-5126,1 54012U 22125BA  24093.82872851  .00002284  00000-0  16155-3 0  9990,2 54012  53.2167 132.7260 0001580  91.1320 268.9853 15.08843608 83048,6917.869,95.437,540.827,538.641,0.0
54012.0,STARLINK-5126,PAYLOAD,2024-04-03 11:47:13,15.08843402,0.0001454,53.216,129.751,99.1276,260.988,7.4327e-05,8.95e-06,0.0,0 STARLINK-5126,1 54012U 22125BA  24094.49112987  .00000895  00000-0  74327-4 0  9993,2 54012  53.2160 129.7510 0001454  99.1276 260.9880 15.08843402 83193,6917.87,95.437,540.741,538.729,0.0
54012.0,STARLINK-5126,PAYLOAD,2024-04-03 19:44:09,15.08840076,0.0001441,53.2158,128.2628,97.996,262.1196,2.2057e-05,6.3e-07,0.0,0 STARLINK-5126,1 54012U 22125BA  24094.82233221  .00000063  00000-0  22057-4 0  9995,2 54012  53.2158 128.2628 0001441  97.9960 262.1196 15.08840076 83194,6917.88,95.438,540.742,538.748,0.0
54012.0,STARLINK-5126,PAYLOAD,2024-04-04 11:38:00,15.08844878,0.0001513,53.2163,125.2888,103.4457,256.6704,-5.8671e-05,-1.222e-05,0.0,0 STARLINK-5126,1 54012U 22125BA  24095.48472948 -.00001222  00000-0 -58671-4 0  9990,2 54012  53.2163 125.2888 0001513 103.4457 256.6704 15.08844878 83297,6917.865,95.437,540.777,538.684,0.0
54012.0,STARLINK-5126,PAYLOAD,2024-04-04 19:34:56,15.0884528,0.0001501,53.217,123.8027,100.7889,259.3272,-1.3622e-05,-5.05e-06,0.0,0 STARLINK-5126,1 54012U 22125BA  24095.81592706 -.00000505  00000-0 -13622-4 0  9992,2 54012  53.2170 123.8027 0001501 100.7889 259.3272 15.08845280 83399,6917.864,95.437,540.768,538.691,0.0
54012.0,STARLINK-5126,PAYLOAD,2024-04-05 08:18:00,15.08844248,0.0001435,53.2167,121.4242,93.3602,266.7555,0.00011513,1.545e-05,0.0,0 STARLINK-5126,1 54012U 22125BA  24096.34584393  .00001545  00000-0  11513-3 0  9993,2 54012  53.2167 121.4242 0001435  93.3602 266.7555 15.08844248 83427,6917.867,95.437,540.725,538.74,0.0
54012.0,STARLINK-5126,PAYLOAD,2024-04-06 01:47:16,15.08830808,0.0001413,53.2167,118.1531,93.0955,267.0199,1.2647e-05,-8.7e-07,0.0,0 STARLINK-5126,1 54012U 22125BA  24097.07449623 -.00000087  00000-0  12647-4 0  9991,2 54012  53.2167 118.1531 0001413  93.0955 267.0199 15.08830808 83587,6917.908,95.438,540.751,538.796,0.0
54012.0,STARLINK-5126,PAYLOAD,2024-04-06 08:08:49,15.08831522,0.0001399,53.2172,116.9636,93.3882,266.727,1.4974e-05,-5e-07,0.0,0 STARLINK-5126,1 54012U 22125BA  24097.33945689 -.00000050  00000-0  14974-4 0  9998,2 54012  53.2172 116.9636 0001399  93.3882 266.7270 15.08831522 83579,6917.906,95.438,540.739,538.803,0.0
54012.0,STARLINK-5126,PAYLOAD,2024-04-06 17:41:07,15.08834347,0.0001342,53.2174,115.1794,91.908,268.2066,-2.1412e-06,-3.22e-06,0.0,0 STARLINK-5126,1 54012U 22125BA  24097.73689708 -.00000322  00000-0 -21412-5 0  9998,2 54012  53.2174 115.1794 0001342  91.9080 268.2066 15.08834347 83634,6917.898,95.438,540.691,538.834,0.0
54012.0,STARLINK-5126,PAYLOAD,2024-04-07 07:59:35,15.08839904,0.0001328,53.2177,112.5037,91.8219,268.2925,1.9998e-05,3e-07,0.0,0 STARLINK-5126,1 54012U 22125BA  24098.33305451  .00000030  00000-0  19998-4 0  9994,2 54012  53.2177 112.5037 0001328  91.8219 268.2925 15.08839904 83778,6917.881,95.438,540.664,538.827,0.0
54012.0,STARLINK-5126,PAYLOAD,2024-04-07 17:31:54,15.08841667,0.0001263,53.2173,110.7193,85.7139,274.3997,-1.9035e-06,-3.18e-06,0.0,0 STARLINK-5126,1 54012U 22125BA  24098.73049461 -.00000318  00000-0 -19035-5 0  9998,2 54012  53.2173 110.7193 0001263  85.7139 274.3997 15.08841667 83785,6917.875,95.437,540.614,538.867,0.0
54012.0,STARLINK-5126,PAYLOAD,2024-04-08 11:01:09,15.08838097,0.0001273,53.217,107.4493,94.2893,265.8245,0.00011535,1.548e-05,0.0,0 STARLINK-5126,1 54012U 22125BA  24099.45913614  .00001548  00000-0  11535-3 0  9997,2 54012  53.2170 107.4493 0001273  94.2893 265.8245 15.08838097 83943,6917.886,95.438,540.632,538.871,0.0
54012.0,STARLINK-5126,PAYLOAD,2024-04-08 17:22:42,15.08835996,0.0001235,53.2167,106.2597,94.0033,266.1101,7.9053e-05,9.7e-06,0.0,0 STARLINK-5126,1 54012U 22125BA  24099.72409933  .00000970  00000-0  79053-4 0  9999,2 54012  53.2167 106.2597 0001235  94.0033 266.1101 15.08835996 83932,6917.893,95.438,540.612,538.903,0.0
54012.0,STARLINK-5126,PAYLOAD,2024-04-09 04:30:24,15.08835018,0.0001288,53.217,104.1783,93.9279,266.1861,3.5008e-05,2.69e-06,0.0,0 STARLINK-5126,1 54012U 22125BA  24100.18778260  .00000269  00000-0  35008-4 0  9997,2 54012  53.2170 104.1783 0001288  93.9279 266.1861 15.08835018 84050,6917.896,95.438,540.652,538.87,0.0
54012.0,STARLINK-5126,PAYLOAD,2024-04-09 09:16:33,15.08838015,0.0001304,53.217,103.2862,93.0218,267.0923,4.6232e-05,4.48e-06,0.0,0 STARLINK-5126,1 54012U 22125BA  24100.38650074  .00000448  00000-0  46232-4 0  9991,2 54012  53.2170 103.2862 0001304  93.0218 267.0923 15.08838015 84038,6917.886,95.438,540.654,538.849,0.0
